[{"OBJECT_NAME":"STARLINK-5118","OBJECT_ID":"2022-125AD","EPOCH":"2026-03-09T16:39:19.700064","MEAN_MOTION":15.08841557,"ECCENTRICITY":0.00011815,"INCLINATION":53.2175,"RA_OF_ASC_NODE":204.0339,"ARG_OF_PERICENTER":81.8503,"MEAN_ANOMALY":278.2624,"EPHEMERIS_TYPE":0,"CLASSIFICATION_TYPE":"U","NORAD_CAT_ID":53991,"ELEMENT_SET_NO":999,"REV_AT_EPOCH":18959,"BSTAR":3.2190284e-5,"MEAN_MOTION_DOT":2.25e-6,"MEAN_MOTION_DDOT":0},{"OBJECT_NAME":"FENGYUN 1C DEB","OBJECT_ID":"1999-025CDM","EPOCH":"2026-03-09T06:24:55.905408","MEAN_MOTION":15.0430028,"ECCENTRICITY":0.00202824,"INCLINATION":99.0326,"RA_OF_ASC_NODE":346.4521,"ARG_OF_PERICENTER":26.5298,"MEAN_ANOMALY":133.8427,"EPHEMERIS_TYPE":0,"CLASSIFICATION_TYPE":"U","NORAD_CAT_ID":31714,"ELEMENT_SET_NO":999,"REV_AT_EPOCH":97342,"BSTAR":0.0098433176,"MEAN_MOTION_DOT":0.00140271,"MEAN_MOTION_DDOT":0}]
